IRIDIUM 136             
1 42962U 17061H   24011.58868790  .00000416  00000+0  14154-3 0  9995
2 42962  86.3954  36.1738 0002457  91.6339 268.5139 14.34219218327615
